GLOBALSTAR M045         
1 25676U 99019A   25349.85340014 -.00000071  00000+0  19542-3 0  9994
2 25676  51.9942 147.4771 0001012 114.7695  37.2788 12.27070589215695
GLOBALSTAR M019         
1 25677U 99019B   25349.60954464  .00000013  00000+0  10719-2 0  9999
2 25677  51.9888 291.3074 0001641 349.5666 181.4307 12.13876789207178
GLOBALSTAR M044         
1 25678U 99019C   25349.91195331 -.00000050  00000+0  46625-3 0  9992
2 25678  51.9974 264.5609 0006837  31.8387  44.4060 11.90261599192969
GLOBALSTAR M042         
1 25679U 99019D   25349.96711603 -.00000051  00000+0  38457-3 0  9999
2 25679  52.0014 257.7814 0002958 332.2954 110.8287 12.22094146207488
GLOBALSTAR M025         
1 25770U 99031A   25349.80556560 -.00000069  00000+0 -57960-4 0  9998
2 25770  51.9816  98.5362 0003003  96.8401  71.0420 11.22558944502103
GLOBALSTAR M049         
1 25771U 99031B   25349.81953117 -.00000116  00000+0 -17601-2 0  9998
2 25771  51.9843 142.3953 0002200 343.2480  16.8243 11.12123646137630
GLOBALSTAR M047         
1 25772U 99031C   25349.88614060 -.00000079  00000+0 -25908-3 0  9995
2 25772  51.9817 121.8540 0016171 210.9698 149.0155 11.31931719491687
GLOBALSTAR M052         
1 25773U 99031D   25349.94272983 -.00000085  00000+0 -64423-3 0  9999
2 25773  51.9859 248.2373 0003319  97.0962 348.7086 11.15062327498781
